<?xml version='1.0' encoding='utf-8'?>
<q:quakeml xmlns="http://quakeml.org/xmlns/bed/1.2" xmlns:anss="http://anss.org/xmlns/event/0.1" xmlns:catalog="http://anss.org/xmlns/catalog/0.1" xmlns:q="http://quakeml.org/xmlns/quakeml/1.2">
  <eventParameters publicID="quakeml:earthquake.usgs.gov/fdsnws/event/1/query?starttime=2014-07-17T00%3A00%3A00.000000&amp;endtime=2014-07-19T00%3A00%3A00.000000&amp;latitude=46.2&amp;longitude=-122.19&amp;maxradius=0.25">
    <creationInfo>
      <creationTime>2026-01-27T20:18:18.000000Z</creationTime>
    </creationInfo>
    <event publicID="quakeml:earthquake.usgs.gov/fdsnws/event/1/query?eventid=uw60062343&amp;format=quakeml" catalog:datasource="uw" catalog:eventsource="uw" catalog:eventid="60062343">
      <preferredOriginID>quakeml:earthquake.usgs.gov/product/origin/uw60062343/uw/1744321844870/product.xml</preferredOriginID>
      <preferredMagnitudeID>quakeml:earthquake.usgs.gov/product/origin/uw60062343/uw/1744321844870/product.xml#magnitude</preferredMagnitudeID>
      <type>earthquake</type>
      <description>
        <text>38 km NNE of Amboy, Washington</text>
        <type>earthquake name</type>
      </description>
      <creationInfo>
        <agencyID>uw</agencyID>
        <creationTime>2025-04-10T21:50:44.870000Z</creationTime>
        <version>5</version>
      </creationInfo>
      <origin publicID="quakeml:earthquake.usgs.gov/product/origin/uw60062343/uw/1744321844870/product.xml" catalog:datasource="uw" catalog:dataid="uw60062343" catalog:eventsource="uw" catalog:eventid="60062343">
        <time>
          <value>2014-07-18T22:48:15.530000Z</value>
        </time>
        <latitude>
          <value>46.201</value>
        </latitude>
        <longitude>
          <value>-122.18116666666667</value>
        </longitude>
        <depth>
          <value>1930.0</value>
          <uncertainty>460.0</uncertainty>
        </depth>
        <quality>
          <usedPhaseCount>7</usedPhaseCount>
          <usedStationCount>5</usedStationCount>
          <standardError>0.07</standardError>
          <azimuthalGap>137.0</azimuthalGap>
          <minimumDistance>0.00684</minimumDistance>
        </quality>
        <evaluationMode>manual</evaluationMode>
        <creationInfo>
          <agencyID>UW</agencyID>
          <creationTime>2025-04-10T21:50:44.870000Z</creationTime>
          <version>5</version>
        </creationInfo>
        <originUncertainty>
          <preferredDescription>horizontal uncertainty</preferredDescription>
          <horizontalUncertainty>460.0</horizontalUncertainty>
        </originUncertainty>
      </origin>
      <magnitude publicID="quakeml:earthquake.usgs.gov/product/origin/uw60062343/uw/1744321844870/product.xml#magnitude" catalog:datasource="uw" catalog:dataid="uw60062343" catalog:eventsource="uw" catalog:eventid="60062343">
        <mag>
          <value>-0.47</value>
        </mag>
        <type>mh</type>
        <originID>quakeml:earthquake.usgs.gov/product/origin/uw60062343/uw/1744321844870/product.xml</originID>
        <stationCount>0</stationCount>
        <evaluationMode>manual</evaluationMode>
        <creationInfo>
          <agencyID>UW</agencyID>
          <creationTime>2025-04-10T21:50:44.870000Z</creationTime>
        </creationInfo>
      </magnitude>
      <pick publicID="smi:local/a16825bb-5731-4317-bd53-95fb4559ebb4">
        <time>
          <value>2014-07-18T22:48:17.387480Z</value>
        </time>
        <waveformID networkCode="CC" stationCode="JRO" locationCode="" channelCode="BHZ"></waveformID>
        <phaseHint>P</phaseHint>
      </pick>
      <pick publicID="smi:local/a08179fb-d19c-4878-9a8d-e046173f11ba">
        <time>
          <value>2014-07-18T22:48:16.352964Z</value>
        </time>
        <waveformID networkCode="CC" stationCode="SEP" locationCode="" channelCode="EHZ"></waveformID>
        <phaseHint>P</phaseHint>
      </pick>
      <pick publicID="smi:local/f1183905-b44e-4e24-bb30-8efe9d97d55b">
        <time>
          <value>2014-07-18T22:48:16.749991Z</value>
        </time>
        <waveformID networkCode="CC" stationCode="STD" locationCode="" channelCode="BHZ"></waveformID>
        <phaseHint>P</phaseHint>
      </pick>
      <pick publicID="smi:local/ca4f3052-5b21-4c11-bcef-8c67056ab9f9">
        <time>
          <value>2014-07-18T22:48:16.357409Z</value>
        </time>
        <waveformID networkCode="CC" stationCode="SUG" locationCode="" channelCode="EHZ"></waveformID>
        <phaseHint>P</phaseHint>
      </pick>
      <pick publicID="smi:local/1ff994fc-84c6-4948-bda1-1d527bc4764e">
        <time>
          <value>2014-07-18T22:48:16.549574Z</value>
        </time>
        <waveformID networkCode="CC" stationCode="SWF2" locationCode="" channelCode="BHZ"></waveformID>
        <phaseHint>P</phaseHint>
      </pick>
      <pick publicID="smi:local/7d13b34e-21a9-43a9-af15-b9388b95396d">
        <time>
          <value>2014-07-18T22:48:16.319604Z</value>
        </time>
        <waveformID networkCode="CC" stationCode="VALT" locationCode="" channelCode="BHZ"></waveformID>
        <phaseHint>P</phaseHint>
      </pick>
      <pick publicID="smi:local/6df694bf-3033-438c-b603-b37fcf4873e6">
        <time>
          <value>2014-07-18T22:48:18.208961Z</value>
        </time>
        <waveformID networkCode="PB" stationCode="B201" locationCode="" channelCode="EHZ"></waveformID>
        <phaseHint>P</phaseHint>
      </pick>
      <pick publicID="smi:local/833b38c9-7a70-4435-9c74-cf05a204af77">
        <time>
          <value>2014-07-18T22:48:18.208961Z</value>
        </time>
        <waveformID networkCode="PB" stationCode="B201" locationCode="" channelCode="LHZ"></waveformID>
        <phaseHint>P</phaseHint>
      </pick>
      <pick publicID="smi:local/0fdd2705-9940-4fde-b308-a15ca6ed6fb0">
        <time>
          <value>2014-07-18T22:48:16.875787Z</value>
        </time>
        <waveformID networkCode="PB" stationCode="B202" locationCode="" channelCode="EHZ"></waveformID>
        <phaseHint>P</phaseHint>
      </pick>
      <pick publicID="smi:local/1308f3b0-ad39-4eb7-8bec-f2963b8472ed">
        <time>
          <value>2014-07-18T22:48:16.875787Z</value>
        </time>
        <waveformID networkCode="PB" stationCode="B202" locationCode="" channelCode="LHZ"></waveformID>
        <phaseHint>P</phaseHint>
      </pick>
      <pick publicID="smi:local/82911813-3996-4e0e-a110-9067644fba17">
        <time>
          <value>2014-07-18T22:48:18.050318Z</value>
        </time>
        <waveformID networkCode="PB" stationCode="B203" locationCode="" channelCode="EHZ"></waveformID>
        <phaseHint>P</phaseHint>
      </pick>
      <pick publicID="smi:local/8bec5b0e-9083-47f6-93ad-000cc6260eb7">
        <time>
          <value>2014-07-18T22:48:18.050318Z</value>
        </time>
        <waveformID networkCode="PB" stationCode="B203" locationCode="" channelCode="LHZ"></waveformID>
        <phaseHint>P</phaseHint>
      </pick>
      <pick publicID="smi:local/faecb3ad-3075-458a-b1e6-53b0dfc40ed0">
        <time>
          <value>2014-07-18T22:48:17.085006Z</value>
        </time>
        <waveformID networkCode="PB" stationCode="B204" locationCode="" channelCode="EHZ"></waveformID>
        <phaseHint>P</phaseHint>
      </pick>
      <pick publicID="smi:local/4acc3bc0-91b5-4fcf-9770-57e984c2f0a4">
        <time>
          <value>2014-07-18T22:48:17.085006Z</value>
        </time>
        <waveformID networkCode="PB" stationCode="B204" locationCode="" channelCode="LHZ"></waveformID>
        <phaseHint>P</phaseHint>
      </pick>
      <pick publicID="smi:local/fa45287b-c477-45b3-97d9-e01565305e99">
        <time>
          <value>2014-07-18T22:48:18.381378Z</value>
        </time>
        <waveformID networkCode="UW" stationCode="CDF" locationCode="" channelCode="EHZ"></waveformID>
        <phaseHint>P</phaseHint>
      </pick>
      <pick publicID="smi:local/1c7b4cb4-e2d8-4e5c-9d6b-6c6a179e021a">
        <time>
          <value>2014-07-18T22:48:16.379754Z</value>
        </time>
        <waveformID networkCode="UW" stationCode="EDM" locationCode="" channelCode="EHZ"></waveformID>
        <phaseHint>P</phaseHint>
      </pick>
      <pick publicID="smi:local/6f2a20fc-cc8b-4ecb-b707-54f8973c1ed3">
        <time>
          <value>2014-07-18T22:48:18.991529Z</value>
        </time>
        <waveformID networkCode="UW" stationCode="ELK" locationCode="" channelCode="EHZ"></waveformID>
        <phaseHint>P</phaseHint>
      </pick>
      <pick publicID="smi:local/4c8ca6b6-20d4-4f7b-985f-228c796ab2ff">
        <time>
          <value>2014-07-18T22:48:18.243346Z</value>
        </time>
        <waveformID networkCode="UW" stationCode="FL2" locationCode="" channelCode="EHZ"></waveformID>
        <phaseHint>P</phaseHint>
      </pick>
      <pick publicID="smi:local/10b0efb1-1f57-4b90-a04a-946df406fff5">
        <time>
          <value>2014-07-18T22:48:16.471177Z</value>
        </time>
        <waveformID networkCode="UW" stationCode="HSR" locationCode="" channelCode="EHZ"></waveformID>
        <phaseHint>P</phaseHint>
      </pick>
      <pick publicID="smi:local/8d9d6b7a-b713-4b49-b6dd-bf2246551d15">
        <time>
          <value>2014-07-18T22:48:16.940639Z</value>
        </time>
        <waveformID networkCode="UW" stationCode="JUN" locationCode="" channelCode="EHZ"></waveformID>
        <phaseHint>P</phaseHint>
      </pick>
      <pick publicID="smi:local/e93b9d88-43fa-458f-90bc-8e782dcfd333">
        <time>
          <value>2014-07-18T22:48:20.115869Z</value>
        </time>
        <waveformID networkCode="UW" stationCode="LVP" locationCode="" channelCode="EHZ"></waveformID>
        <phaseHint>P</phaseHint>
      </pick>
      <pick publicID="smi:local/9fb58a11-c145-4789-8206-7aaa5728df57">
        <time>
          <value>2014-07-18T22:48:19.512929Z</value>
        </time>
        <waveformID networkCode="UW" stationCode="MTM" locationCode="" channelCode="EHZ"></waveformID>
        <phaseHint>P</phaseHint>
      </pick>
      <pick publicID="smi:local/fe1e3a83-fe9a-4dfb-8cf3-2c2a3207bc81">
        <time>
          <value>2014-07-18T22:48:16.627275Z</value>
        </time>
        <waveformID networkCode="UW" stationCode="SHW" locationCode="" channelCode="EHZ"></waveformID>
        <phaseHint>P</phaseHint>
      </pick>
      <pick publicID="smi:local/5dbd8f93-b883-4648-8324-d9e5d6fd8235">
        <time>
          <value>2014-07-18T22:48:16.858049Z</value>
        </time>
        <waveformID networkCode="UW" stationCode="SOS" locationCode="" channelCode="EHZ"></waveformID>
        <phaseHint>P</phaseHint>
      </pick>
      <pick publicID="smi:local/98dc180f-e5f3-4b5b-afad-0dd2e4500274">
        <time>
          <value>2014-07-18T22:48:16.757837Z</value>
        </time>
        <waveformID networkCode="UW" stationCode="STD" locationCode="" channelCode="EHZ"></waveformID>
        <phaseHint>P</phaseHint>
      </pick>
      <pick publicID="smi:local/63c26be6-a2eb-4216-851b-a6722d70fdab">
        <time>
          <value>2014-07-18T22:48:18.968128Z</value>
        </time>
        <waveformID networkCode="UW" stationCode="TDL" locationCode="" channelCode="EHZ"></waveformID>
        <phaseHint>P</phaseHint>
      </pick>
      <pick publicID="smi:local/e2b7d128-2728-49b2-a647-34ef3a004a28">
        <time>
          <value>2014-07-18T22:48:20.825565Z</value>
        </time>
        <waveformID networkCode="XD" stationCode="MF05" locationCode="" channelCode="HHZ"></waveformID>
        <phaseHint>P</phaseHint>
      </pick>
      <pick publicID="smi:local/df3bb93b-dc3a-47e1-aedf-27446b5dca9c">
        <time>
          <value>2014-07-18T22:48:21.028882Z</value>
        </time>
        <waveformID networkCode="XD" stationCode="MG03" locationCode="" channelCode="HHZ"></waveformID>
        <phaseHint>P</phaseHint>
      </pick>
      <pick publicID="smi:local/03714f54-e384-41c1-a61f-3d86f249263e">
        <time>
          <value>2014-07-18T22:48:18.993529Z</value>
        </time>
        <waveformID networkCode="XD" stationCode="MG05" locationCode="" channelCode="HHZ"></waveformID>
        <phaseHint>P</phaseHint>
      </pick>
      <pick publicID="smi:local/23df6afc-a697-491d-b2a5-9965402f0479">
        <time>
          <value>2014-07-18T22:48:18.958071Z</value>
        </time>
        <waveformID networkCode="XD" stationCode="MG06" locationCode="" channelCode="HHZ"></waveformID>
        <phaseHint>P</phaseHint>
      </pick>
      <pick publicID="smi:local/72360e0c-d880-4b4f-a2b6-ad5ef5896b94">
        <time>
          <value>2014-07-18T22:48:19.678852Z</value>
        </time>
        <waveformID networkCode="XD" stationCode="MG07" locationCode="" channelCode="HHZ"></waveformID>
        <phaseHint>P</phaseHint>
      </pick>
      <pick publicID="smi:local/11524c53-225a-48b7-9a7f-6ad43c6499bd">
        <time>
          <value>2014-07-18T22:48:20.571762Z</value>
        </time>
        <waveformID networkCode="XD" stationCode="MG08" locationCode="" channelCode="HHZ"></waveformID>
        <phaseHint>P</phaseHint>
      </pick>
      <pick publicID="smi:local/db4d75ca-41f4-4938-92c9-089676a0789d">
        <time>
          <value>2014-07-18T22:48:19.743751Z</value>
        </time>
        <waveformID networkCode="XD" stationCode="MH04" locationCode="" channelCode="HHZ"></waveformID>
        <phaseHint>P</phaseHint>
      </pick>
      <pick publicID="smi:local/f04cf1bd-8a3e-4263-b4cd-f820c60a4826">
        <time>
          <value>2014-07-18T22:48:17.934413Z</value>
        </time>
        <waveformID networkCode="XD" stationCode="MH07" locationCode="" channelCode="HHZ"></waveformID>
        <phaseHint>P</phaseHint>
      </pick>
      <pick publicID="smi:local/865c4275-7b58-46a8-801d-22a523ca0c53">
        <time>
          <value>2014-07-18T22:48:19.112205Z</value>
        </time>
        <waveformID networkCode="XD" stationCode="MI04" locationCode="" channelCode="HHZ"></waveformID>
        <phaseHint>P</phaseHint>
      </pick>
      <pick publicID="smi:local/33e394ca-b6ad-4710-bc4f-071ef664f2a5">
        <time>
          <value>2014-07-18T22:48:17.475615Z</value>
        </time>
        <waveformID networkCode="XD" stationCode="MI05" locationCode="" channelCode="HHZ"></waveformID>
        <phaseHint>P</phaseHint>
      </pick>
      <pick publicID="smi:local/a8ba0c74-d24b-4135-b162-465afc6c065a">
        <time>
          <value>2014-07-18T22:48:17.590745Z</value>
        </time>
        <waveformID networkCode="XD" stationCode="MI07" locationCode="" channelCode="HHZ"></waveformID>
        <phaseHint>P</phaseHint>
      </pick>
      <pick publicID="smi:local/055119ae-6b06-46fb-b446-915ec681527c">
        <time>
          <value>2014-07-18T22:48:18.987376Z</value>
        </time>
        <waveformID networkCode="XD" stationCode="MI08" locationCode="" channelCode="HHZ"></waveformID>
        <phaseHint>P</phaseHint>
      </pick>
      <pick publicID="smi:local/e98cd7d1-3dab-491c-99d4-27d8fc77a2dc">
        <time>
          <value>2014-07-18T22:48:20.949229Z</value>
        </time>
        <waveformID networkCode="XD" stationCode="MI09" locationCode="" channelCode="HHZ"></waveformID>
        <phaseHint>P</phaseHint>
      </pick>
      <pick publicID="smi:local/285a024b-a695-46d6-8c34-3225c3081f9b">
        <time>
          <value>2014-07-18T22:48:17.083267Z</value>
        </time>
        <waveformID networkCode="XD" stationCode="MJ06" locationCode="" channelCode="HHZ"></waveformID>
        <phaseHint>P</phaseHint>
      </pick>
      <pick publicID="smi:local/ad145cfd-14d3-472d-a445-ab66fe7d64fa">
        <time>
          <value>2014-07-18T22:48:17.586646Z</value>
        </time>
        <waveformID networkCode="XD" stationCode="MJ07" locationCode="" channelCode="HHZ"></waveformID>
        <phaseHint>P</phaseHint>
      </pick>
      <pick publicID="smi:local/29e53c40-0917-4bc4-a864-e0fedd8bce2b">
        <time>
          <value>2014-07-18T22:48:19.601187Z</value>
        </time>
        <waveformID networkCode="XD" stationCode="MJ09" locationCode="" channelCode="HHZ"></waveformID>
        <phaseHint>P</phaseHint>
      </pick>
      <pick publicID="smi:local/ef72add3-324b-4833-af98-1d22f0470b97">
        <time>
          <value>2014-07-18T22:48:19.348453Z</value>
        </time>
        <waveformID networkCode="XD" stationCode="MK04" locationCode="" channelCode="HHZ"></waveformID>
        <phaseHint>P</phaseHint>
      </pick>
      <pick publicID="smi:local/48540cc4-abb1-49da-9307-a530129fc062">
        <time>
          <value>2014-07-18T22:48:17.446906Z</value>
        </time>
        <waveformID networkCode="XD" stationCode="MK06" locationCode="" channelCode="HHZ"></waveformID>
        <phaseHint>P</phaseHint>
      </pick>
      <pick publicID="smi:local/f77656b9-733c-4b27-8e05-bcaa949f09b5">
        <time>
          <value>2014-07-18T22:48:17.101314Z</value>
        </time>
        <waveformID networkCode="XD" stationCode="MK07" locationCode="" channelCode="HHZ"></waveformID>
        <phaseHint>P</phaseHint>
      </pick>
      <pick publicID="smi:local/484993ff-3d53-4b46-a17f-ba69a53f35ca">
        <time>
          <value>2014-07-18T22:48:18.376319Z</value>
        </time>
        <waveformID networkCode="XD" stationCode="MK08" locationCode="" channelCode="HHZ"></waveformID>
        <phaseHint>P</phaseHint>
      </pick>
      <pick publicID="smi:local/e63a55e0-20cc-4ba7-a7dd-50c3cd3875db">
        <time>
          <value>2014-07-18T22:48:18.571603Z</value>
        </time>
        <waveformID networkCode="XD" stationCode="ML07" locationCode="" channelCode="HHZ"></waveformID>
        <phaseHint>P</phaseHint>
      </pick>
      <pick publicID="smi:local/9a01abd8-59a0-4981-9934-beeebb55360f">
        <time>
          <value>2014-07-18T22:48:20.957014Z</value>
        </time>
        <waveformID networkCode="XD" stationCode="ML09" locationCode="" channelCode="HHZ"></waveformID>
        <phaseHint>P</phaseHint>
      </pick>
      <pick publicID="smi:local/564067e6-be2d-4685-b085-85dbc697d595">
        <time>
          <value>2014-07-18T22:48:20.398817Z</value>
        </time>
        <waveformID networkCode="XD" stationCode="MM04" locationCode="" channelCode="HHZ"></waveformID>
        <phaseHint>P</phaseHint>
      </pick>
      <pick publicID="smi:local/72bcb404-85f6-4c03-93bd-a279a013dc94">
        <time>
          <value>2014-07-18T22:48:19.304844Z</value>
        </time>
        <waveformID networkCode="XD" stationCode="MM06" locationCode="" channelCode="HHZ"></waveformID>
        <phaseHint>P</phaseHint>
      </pick>
      <pick publicID="smi:local/1f33ff73-956e-46be-96e8-0c3b2477f455">
        <time>
          <value>2014-07-18T22:48:20.390151Z</value>
        </time>
        <waveformID networkCode="XD" stationCode="MM08" locationCode="" channelCode="HHZ"></waveformID>
        <phaseHint>P</phaseHint>
      </pick>
      <pick publicID="smi:local/ce1a8208-e589-4bda-a9e7-37ec54fd6abd">
        <time>
          <value>2014-07-18T22:48:20.443371Z</value>
        </time>
        <waveformID networkCode="XD" stationCode="MN07" locationCode="" channelCode="HHZ"></waveformID>
        <phaseHint>P</phaseHint>
      </pick>
    </event>
    <event publicID="quakeml:earthquake.usgs.gov/fdsnws/event/1/query?eventid=uw60822057&amp;format=quakeml" catalog:datasource="uw" catalog:eventsource="uw" catalog:eventid="60822057">
      <preferredOriginID>quakeml:earthquake.usgs.gov/product/origin/uw60822057/uw/1744314619670/product.xml</preferredOriginID>
      <preferredMagnitudeID>quakeml:earthquake.usgs.gov/product/origin/uw60822057/uw/1744314619670/product.xml#magnitude</preferredMagnitudeID>
      <type>earthquake</type>
      <description>
        <text>38 km NNE of Amboy, Washington</text>
        <type>earthquake name</type>
      </description>
      <creationInfo>
        <agencyID>uw</agencyID>
        <creationTime>2025-04-10T19:50:19.670000Z</creationTime>
        <version>17</version>
      </creationInfo>
